HST                     
1 20580U 90037B   26179.55204950  .00006207  00000+0  19454-3 0  9999
2 20580  28.4733   2.8956 0001396 281.6307  78.4132 15.30877093790318
POLAR                   
1 23802U 96013A   26179.59050762  .00000183  00000+0  00000+0 0  9993
2 23802  79.8685 226.9180 6481807 208.6879  90.5765  1.29846071145002
SWAS                    
1 25560U 98071A   26179.54481539  .00002065  00000+0  13441-3 0  9995
2 25560  69.8940 198.2284 0008688 248.6189 111.4048 15.09676726498984
CXO                     
1 25867U 99040B   26179.95532601  .00000592  00000+0  00000+0 0  9990
2 25867  56.3077 116.3625 7815439 310.1470   0.3486  0.37796038 17366
XMM-NEWTON              
1 25989U 99066A   26181.31376484  .00000075  00000+0  00000+0 0  9997
2 25989  64.4187 282.8185 4670815  64.6474   0.0796  0.50127122 23075
TERRA                   
1 25994U 99068A   26179.60840635  .00000379  00000+0  86126-4 0  9993
2 25994  97.9451 228.7016 0002469 157.6806 354.8700 14.61111672411278
CLUSTER II-FM7 (SAMBA)  
1 26410U 00041A   26181.52661441  .00015728  00000+0  00000+0 0  9996
2 26410 149.8901  53.0517 9069081 270.4354 359.5654  0.44858661 20366
CLUSTER II-FM8 (TANGO)  
1 26464U 00045B   26177.44528680  .00007604  00000+0  00000+0 0  9996
2 26464 150.1217  53.5221 9068133 270.7042   2.5410  0.44425767 20352
ODIN                    
1 26702U 01007A   26179.63720620  .00214973  00000+0  11239-2 0  9999
2 26702  97.3796 221.3471 0006204 134.8757 225.3015 15.80233785391202
TIMED                   
1 26998U 01055B   26179.51574818  .00000904  00000+0  85601-4 0  9995
2 26998  74.0664 212.2084 0001686 320.2046  39.9015 14.95314068332512
CORIOLIS                
1 27640U 03001A   26179.61251214  .00000095  00000+0  65061-4 0  9995
2 27640  98.7127 186.3229 0014047 175.1923 184.9391 14.19947747215848
SORCE                   
1 27651U 03004A   26179.49612490  .00002183  00000+0  16670-3 0  9994
2 27651  39.9887 197.1531 0016504 136.4451 223.7649 15.03762375273604
MOST                    
1 27843U 03031D   26179.61555451  .00000060  00000+0  47400-4 0  9992
2 27843  98.7043 187.1819 0009142 213.8955 146.1639 14.21324655192332
SCISAT 1                
1 27858U 03036A   26179.36798963  .00000588  00000+0  79700-4 0  9995
2 27858  73.9291 149.1280 0008162 219.1594 140.8993 14.81459631233101
SWIFT                   
1 28485U 04047A   26179.44153100  .00048347  00000+0  38405-3 0  9993
2 28485  20.5519  98.0156 0001394  95.8786 264.1819 15.69400378188630
HINODE (SOLAR-B)        
1 29479U 06041A   26179.56334532  .00000677  00000+0  12473-3 0  9997
2 29479  98.0544 195.5482 0016025 250.3841 109.5635 14.68637571 56541
SHIJIAN-6 02A (SJ-6 02A)
1 29505U 06046A   26179.63482122  .00008480  00000+0  43142-3 0  9996
2 29505  97.6357 220.7870 0004810  98.7692 261.4086 15.17076462 74007
SHIJIAN-6 02B (SJ-6 02B)
1 29506U 06046B   26179.60958330  .00001366  00000+0  11042-3 0  9993
2 29506  97.7157 208.5979 0015227  28.0925 332.1117 15.01404489 72455
FGRST (GLAST)           
1 33053U 08029A   26179.55618945  .00002728  00000+0  95919-4 0  9996
2 33053  25.5814 125.5345 0008530 100.2623 259.8878 15.23993392997576
SDO                     
1 36395U 10005A   26179.25530826 -.00000095  00000+0  00000+0 0  9991
2 36395  34.6736  86.1745 0001515  48.6117 131.2733  1.00270682 60177
CRYOSAT 2               
1 36508U 10013A   26179.59116440  .00000096  00000+0  23003-4 0  9998
2 36508  92.0361 280.0737 0002143  95.3765 264.7687 14.51902543859733
X-SAT                   
1 37389U 11015C   26179.59877916 -.00000055  00000+0 -58467-5 0  9991
2 37389  98.3508 156.0787 0013212 314.0607  45.9485 14.25209060789300
GCOM-W1 (SHIZUKU)       
1 38337U 12025A   26179.59060251  .00000426  00000+0  10451-3 0  9992
2 38337  98.2023 119.9737 0001621  69.5458 104.1865 14.57134499750693
NUSTAR                  
1 38358U 12031A   26179.66670139  .00009649  00000+0  54002-3 0  9998
2 38358   6.0273 308.0336 0008638 277.3329  56.8568 15.08905057  1300
NEOSSAT                 
1 39089U 13009D   26179.49872127  .00000131  00000+0  60022-4 0  9995
2 39089  98.4180 359.2626 0010408 207.1985 152.8657 14.35830180698368
BRITE-AUSTRIA           
1 39091U 13009F   26179.49171952  .00000166  00000+0  70920-4 0  9992
2 39091  98.3997 358.6478 0009714 199.9980 160.0827 14.36546316698675
IRIS                    
1 39197U 13033A   26179.54544256  .00000992  00000+0  11967-3 0  9995
2 39197  97.9323  18.7867 0022985 282.7563  77.1084 14.85906429702060
HISAKI (SPRINT-A)       
1 39253U 13049A   26179.61822451  .00000090  00000+0  35834-4 0  9998
2 39253  29.7174 161.8925 0136857 109.5325 252.0082 13.55545624632977
CASSIOPE                
1 39265U 13055A   26179.63890868  .00042327 -43941-6  45777-3 0  9991
2 39265  80.9143  52.8054 0288302  23.9017 337.5292 15.26251763669416
STSAT-3                 
1 39422U 13066G   26179.63193645  .00001158  00000+0  90963-4 0  9993
2 39422  97.6213 149.3358 0010113  11.7596 348.3864 15.02814534685927
